NORAD_CAT_ID,OBJECT_NAME,OBJECT_TYPE,EPOCH,MEAN_MOTION,ECCENTRICITY,INCLINATION,RA_OF_ASC_NODE,ARG_OF_PERICENTER,MEAN_ANOMALY,BSTAR,MEAN_MOTION_DOT,MEAN_MOTION_DDOT,TLE_LINE0,TLE_LINE1,TLE_LINE2,SEMIMAJOR_AXIS,PERIOD,APOGEE,PERIGEE,DECAYED
52872.0,STARLINK-4213,PAYLOAD,2022-09-30 14:00:01,15.08872584,0.0001766,53.2124,253.0026,43.1701,261.1038,-0.0029866999999999,-0.00047551,0.0,0 STARLINK-4213,1 52872U 22062AU  22273.58334491 -.00047551  00000-0 -29867-2 0  9997,2 52872  53.2124 253.0026 0001766  43.1701 261.1038 15.08872584  1300,6917.781,95.435,540.867,538.424,0.0
52872.0,STARLINK-4213,PAYLOAD,2022-09-30 16:00:00,15.08852078,0.0001710999999999,53.2125,252.6279,45.7008,351.4835,-0.00072913,-0.00011877,0.0,0 STARLINK-4213,1 52872U 22062AU  22273.66667824 -.00011877  00000-0 -72913-3 0  9998,2 52872  53.2125 252.6279 0001711  45.7008 351.4835 15.08852078 16933,6917.843000000003,95.437,540.8919999999998,538.525,0.0
52872.0,STARLINK-4213,PAYLOAD,2022-09-30 22:00:00,15.08852758,0.0001669,53.2125,251.505,50.5053,265.3825,0.00051409,7.906e-05,0.0,0 STARLINK-4213,1 52872U 22062AU  22273.91667824  .00007906  00000-0  51409-3 0  9999,2 52872  53.2125 251.5050 0001669  50.5053 265.3825 15.08852758  1306,6917.840999999999,95.437,540.861,538.552,0.0
52872.0,STARLINK-4213,PAYLOAD,2022-10-01 14:00:01,15.08869351,0.0001855,53.2122,248.5131,46.4941,292.5958,-0.0031661,-0.00050366,0.0,0 STARLINK-4213,1 52872U 22062AU  22274.58334491 -.00050366  00000-0 -31661-2 0  9991,2 52872  53.2122 248.5131 0001855  46.4941 292.5958 15.08869351  1302,6917.791,95.436,540.939,538.372,0.0
52872.0,STARLINK-4213,PAYLOAD,2022-10-01 22:00:00,15.08837218,0.0001791,53.2123,247.0157,52.5483,298.152,-0.0015546,-0.00024943,0.0,0 STARLINK-4213,1 52872U 22062AU  22274.91667824 -.00024943  00000-0 -15546-2 0  9993,2 52872  53.2123 247.0157 0001791  52.5483 298.1520 15.08837218  1307,6917.889,95.438,540.993,538.515,0.0
52872.0,STARLINK-4213,PAYLOAD,2022-10-02 06:00:00,15.08801469,0.0002036,53.2122,245.5211,48.9187,313.3677,0.0010989,0.00017226,0.0,0 STARLINK-4213,1 52872U 22062AU  22275.25001157  .00017226  00000-0  10989-2 0  9992,2 52872  53.2122 245.5211 0002036  48.9187 313.3677 15.08801469 17177,6917.998000000001,95.44,541.2719999999998,538.455,0.0
52872.0,STARLINK-4213,PAYLOAD,2022-10-02 14:00:01,15.08835234,0.0001965,53.2121,244.0236,49.0345,324.8058,-0.0012866,-0.00020704,0.0,0 STARLINK-4213,1 52872U 22062AU  22275.58334491 -.00020704  00000-0 -12866-2 0  9991,2 52872  53.2121 244.0236 0001965  49.0345 324.8058 15.08835234  1300,6917.895,95.438,541.119,538.401,0.0
52872.0,STARLINK-4213,PAYLOAD,2022-10-02 22:00:00,15.08830167,0.0001919,53.2124,242.5264,54.9502,330.4713,0.0023478,0.00037265,0.0,0 STARLINK-4213,1 52872U 22062AU  22275.91667824  .00037265  00000-0  23478-2 0  9996,2 52872  53.2124 242.5264 0001919  54.9502 330.4713 15.08830167  1307,6917.91,95.438,541.1030000000002,538.448,0.0
52872.0,STARLINK-4213,PAYLOAD,2022-10-03 14:00:01,15.08865066,0.0001955999999999,53.2125,239.5339,49.8456,358.7866,-0.0023853999999999,-0.00038078,0.0,0 STARLINK-4213,1 52872U 22062AU  22276.58334491 -.00038078  00000-0 -23854-2 0  9994,2 52872  53.2125 239.5339 0001956  49.8456 358.7866 15.08865066  1307,6917.804,95.436,541.0219999999998,538.316,0.0
52872.0,STARLINK-4213,PAYLOAD,2022-10-03 22:00:00,15.08866665,0.0001394,53.2125,238.0373,63.5791,356.4718,0.0014632999999999,0.00023094,0.0,0 STARLINK-4213,1 52872U 22062AU  22276.91667824  .00023094  00000-0  14633-2 0  9995,2 52872  53.2125 238.0373 0001394  63.5791 356.4718 15.08866665 17427,6917.799,95.436,540.628,538.7,0.0
52872.0,STARLINK-4213,PAYLOAD,2022-10-04 14:00:01,15.08875571,0.0001496,53.2126,235.0447,60.4402,22.8822,-0.0043731,-0.00069284,0.0,0 STARLINK-4213,1 52872U 22062AU  22277.58334491 -.00069284  00000-0 -43731-2 0  9994,2 52872  53.2126 235.0447 0001496  60.4402  22.8822 15.08875571  1301,6917.772,95.435,540.672,538.602,0.0
52872.0,STARLINK-4213,PAYLOAD,2022-10-04 16:00:00,15.08839743,0.0001457,53.2127,234.6701,62.8022,113.4344,-0.00049155,-8.102e-05,0.0,0 STARLINK-4213,1 52872U 22062AU  22277.66667824 -.00008102  00000-0 -49155-3 0  9991,2 52872  53.2127 234.6701 0001457  62.8022 113.4344 15.08839743 17541,6917.880999999999,95.438,540.754,538.738,0.0
52872.0,STARLINK-4213,PAYLOAD,2022-10-04 22:00:00,15.0883323,0.0001545,53.2128,233.5476,67.5097,27.4165,0.0015889,0.00025085,0.0,0 STARLINK-4213,1 52872U 22062AU  22277.91667824  .00025085  00000-0  15889-2 0  9992,2 52872  53.2128 233.5476 0001545  67.5097  27.4165 15.08833230  1308,6917.901,95.438,540.835,538.697,0.0
52872.0,STARLINK-4213,PAYLOAD,2022-10-05 14:00:01,15.08837059,0.0001506,53.2128,230.5549,64.7596,53.4288,-0.0018398,-0.00029447,0.0,0 STARLINK-4213,1 52872U 22062AU  22278.58335648 -.00029447  00000-0 -18398-2 0  9998,2 52872  53.2128 230.5549 0001506  64.7596  53.4288 15.08837059  1304,6917.889,95.438,540.7959999999998,538.7130000000002,0.0
52872.0,STARLINK-4213,PAYLOAD,2022-10-05 22:00:00,15.08833591,0.0001543,53.213,229.0581,71.3068,58.3931,0.0014333,0.00022593,0.0,0 STARLINK-4213,1 52872U 22062AU  22278.91667824  .00022593  00000-0  14333-2 0  9997,2 52872  53.2130 229.0581 0001543  71.3068  58.3931 15.08833591 17735,6917.9,95.438,540.832,538.698,0.0
52872.0,STARLINK-4213,PAYLOAD,2022-10-06 14:00:01,15.08857182,0.0001643,53.2128,226.0655,83.32,69.4924,0.00070333,0.00010928,0.0,0 STARLINK-4213,1 52872U 22062AU  22279.58334491  .00010928  00000-0  70333-3 0  9994,2 52872  53.2128 226.0655 0001643  83.3200  69.4924 15.08857182  1306,6917.828,95.436,540.8290000000002,538.556,0.0
52872.0,STARLINK-4213,PAYLOAD,2022-10-06 22:42:55,15.08909848,0.0001603,53.213,224.4353,87.6619,238.682,-0.0023786,-0.00038017,0.0,0 STARLINK-4213,1 52872U 22062AU  22279.94646991 -.00038017  00000-0 -23786-2 0  9995,2 52872  53.2130 224.4353 0001603  87.6619 238.6820 15.08909848  1305,6917.667,95.433,540.641,538.423,0.0
52872.0,STARLINK-4213,PAYLOAD,2022-10-07 00:00:00,15.08912986,0.0001595,53.2129,224.1953,86.1762,171.1657,-0.0033171999999999,-0.000528,0.0,0 STARLINK-4213,1 52872U 22062AU  22280.00001157 -.00052800  00000-0 -33172-2 0  9999,2 52872  53.2129 224.1953 0001595  86.1762 171.1657 15.08912986 17896,6917.656999999997,95.433,540.626,538.419,0.0
52872.0,STARLINK-4213,PAYLOAD,2022-10-07 14:00:01,15.08870137,0.0001334,53.2127,221.5758,86.3271,101.3987,-0.001254,-0.00020206,0.0,0 STARLINK-4213,1 52872U 22062AU  22280.58334491 -.00020206  00000-0 -12540-2 0  9993,2 52872  53.2127 221.5758 0001334  86.3271 101.3987 15.08870137  1307,6917.788000000001,95.436,540.576,538.73,0.0
52872.0,STARLINK-4213,PAYLOAD,2022-10-07 22:00:00,15.08879036,0.000137,53.2129,220.0794,90.2708,109.0755,-0.0039475,-0.00062633,0.0,0 STARLINK-4213,1 52872U 22062AU  22280.91667824 -.00062633  00000-0 -39475-2 0  9995,2 52872  53.2129 220.0794 0001370  90.2708 109.0755 15.08879036 18035,6917.761,95.435,540.5740000000002,538.678,0.0
52872.0,STARLINK-4213,PAYLOAD,2022-10-08 14:00:01,15.08802111,0.0001333,53.2128,217.0862,87.6355,134.9036,0.00020093,2.908e-05,0.0,0 STARLINK-4213,1 52872U 22062AU  22281.58334491  .00002908  00000-0  20093-3 0  9994,2 52872  53.2128 217.0862 0001333  87.6355 134.9036 15.08802111  1304,6917.996,95.44,540.783,538.939,0.0
52872.0,STARLINK-4213,PAYLOAD,2022-10-08 22:00:00,15.088236300000002,0.0001438,53.2129,215.5901,90.5817,143.5021,0.00059505,9.191e-05,0.0,0 STARLINK-4213,1 52872U 22062AU  22281.91667824  .00009191  00000-0  59505-3 0  9991,2 52872  53.2129 215.5901 0001438  90.5817 143.5021 15.08823630 18187,6917.93,95.439,540.79,538.8009999999998,0.0
52872.0,STARLINK-4213,PAYLOAD,2022-10-09 14:00:01,15.08827329,0.0001264,53.213,212.5969,88.1617,169.0984,0.0026425,0.00042004,0.0,0 STARLINK-4213,1 52872U 22062AU  22282.58334491  .00042004  00000-0  26425-2 0  9990,2 52872  53.2130 212.5969 0001264  88.1617 169.0984 15.08827329  1304,6917.919,95.438,540.659,538.91,0.0
52872.0,STARLINK-4213,PAYLOAD,2022-10-10 00:00:00,15.08879834,0.0001395999999999,53.213,210.7272,87.4405,274.3217,-0.0024586,-0.00039246,0.0,0 STARLINK-4213,1 52872U 22062AU  22283.00001157 -.00039246  00000-0 -24586-2 0  9990,2 52872  53.2130 210.7272 0001396  87.4405 274.3217 15.08879834  1301,6917.759,95.435,540.589,538.658,0.0
52872.0,STARLINK-4213,PAYLOAD,2022-10-10 08:00:01,15.08862898,0.000136,53.2136,209.23,81.1327,292.2544,-0.0013265,-0.0002134999999999,0.0,0 STARLINK-4213,1 52872U 22062AU  22283.33334491 -.00021350  00000-0 -13265-2 0  9995,2 52872  53.2136 209.2300 0001360  81.1327 292.2544 15.08862898 18398,6917.81,95.436,540.616,538.735,0.0
52872.0,STARLINK-4213,PAYLOAD,2022-10-10 14:00:01,15.0889797,0.0001333,53.2152,208.1048,87.3517,204.7447,-0.012232,-0.00190164,0.0,0 STARLINK-4213,1 52872U 22062AU  22283.58334491 -.00190164  00000-0 -12232-1 0  9994,2 52872  53.2152 208.1048 0001333  87.3517 204.7447 15.08897970  1304,6917.703,95.434,540.49,538.646,0.0
52872.0,STARLINK-4213,PAYLOAD,2022-10-10 22:00:01,15.08781921,0.0001304,53.216,206.6074,88.624,215.1464,0.00067851,0.0001051,0.0,0 STARLINK-4213,1 52872U 22062AU  22283.91668981  .00010510  00000-0  67851-3 0  9998,2 52872  53.2160 206.6074 0001304  88.6240 215.1464 15.08781921  1303,6918.058000000001,95.441,540.825,539.021,0.0
52872.0,STARLINK-4213,PAYLOAD,2022-10-11 06:00:00,15.08826573,0.0001392,53.2152,205.1141,82.4087,232.8533,-0.001541,-0.0002472,0.0,0 STARLINK-4213,1 52872U 22062AU  22284.25001157 -.00024720  00000-0 -15410-2 0  9995,2 52872  53.2152 205.1141 0001392  82.4087 232.8533 15.08826573 18530,6917.920999999999,95.438,540.749,538.823,0.0
52872.0,STARLINK-4213,PAYLOAD,2022-10-11 14:00:01,15.08801059,0.0001186,53.217,203.6141,89.5102,237.3251,0.0035116,0.00055983,0.0,0 STARLINK-4213,1 52872U 22062AU  22284.58334491  .00055983  00000-0  35116-2 0  9999,2 52872  53.2170 203.6141 0001186  89.5102 237.3251 15.08801059  1306,6917.999,95.44,540.685,539.044,0.0
